{
  "type": "FeatureCollection",
  "features": [
    {
      "type": "Feature",
      "properties": {
        "norad_id": 34340,
        "name": "COSMOS 2251 DEB",
        "group": "cosmos-2251-debris",
        "lat": 17.143013524766246,
        "lon": 128.84351878004864,
        "alt_km": 994.0420886517777,
        "timestamp": "2025-12-09T04:51:47.885508+00:00",
        "meta_object_name": "COSMOS 2251 DEB",
        "meta_object_id": "1993-036PN",
        "meta_epoch": "2025-12-08T16:48:01.370304",
        "meta_mean_motion": 13.7954944,
        "meta_eccentricity": 0.0282196,
        "meta_inclination": 74.0796,
        "meta_ra_of_asc_node": 314.7335,
        "meta_arg_of_pericenter": 63.5043,
        "meta_mean_anomaly": 120.086,
        "meta_ephemeris_type": 0,
        "meta_classification_type": "U",
        "meta_norad_cat_id": 34340,
        "meta_element_set_no": 999,
        "meta_rev_at_epoch": 84212,
        "meta_bstar": 0.0019552,
        "meta_mean_motion_dot": 2.696e-05,
        "meta_mean_motion_ddot": 0,
        "tle_line1": "1 34340U 93036PN  25342.70001586  .00002696  00000+0  19552-2 0  9994",
        "tle_line2": "2 34340  74.0796 314.7335 0282196  63.5043 120.0860 13.79549440842124"
      },
      "geometry": {
        "type": "Point",
        "coordinates": [
          128.84351878004864,
          17.143013524766246
        ]
      }
    },
    {
      "type": "Feature",
      "properties": {
        "norad_id": 34343,
        "name": "COSMOS 2251 DEB",
        "group": "cosmos-2251-debris",
        "lat": 10.33082457344537,
        "lon": -86.58153677053073,
        "alt_km": 679.2573841338908,
        "timestamp": "2025-12-09T04:51:47.885518+00:00",
        "meta_object_name": "COSMOS 2251 DEB",
        "meta_object_id": "1993-036PR",
        "meta_epoch": "2025-12-08T18:49:09.225984",
        "meta_mean_motion": 14.69331068,
        "meta_eccentricity": 0.0023029,
        "meta_inclination": 74.0204,
        "meta_ra_of_asc_node": 97.2236,
        "meta_arg_of_pericenter": 13.4265,
        "meta_mean_anomaly": 102.8026,
        "meta_ephemeris_type": 0,
        "meta_classification_type": "U",
        "meta_norad_cat_id": 34343,
        "meta_element_set_no": 999,
        "meta_rev_at_epoch": 88672,
        "meta_bstar": 0.0023243,
        "meta_mean_motion_dot": 0.00013781,
        "meta_mean_motion_ddot": 0,
        "tle_line1": "1 34343U 93036PR  25342.78413456  .00013781  00000+0  23243-2 0  9997",
        "tle_line2": "2 34343  74.0204  97.2236 0023029  13.4265 102.8026 14.69331068886723"
      },
      "geometry": {
        "type": "Point",
        "coordinates": [
          -86.58153677053073,
          10.33082457344537
        ]
      }
    },
    {
      "type": "Feature",
      "properties": {
        "norad_id": 34344,
        "name": "COSMOS 2251 DEB",
        "group": "cosmos-2251-debris",
        "lat": -40.692619858784276,
        "lon": -49.032572762329714,
        "alt_km": 820.572987788014,
        "timestamp": "2025-12-09T04:51:47.885528+00:00",
        "meta_object_name": "COSMOS 2251 DEB",
        "meta_object_id": "1993-036PS",
        "meta_epoch": "2025-12-08T19:54:54.337248",
        "meta_mean_motion": 14.16365977,
        "meta_eccentricity": 0.0155569,
        "meta_inclination": 73.9779,
        "meta_ra_of_asc_node": 117.3272,
        "meta_arg_of_pericenter": 302.2966,
        "meta_mean_anomaly": 181.7308,
        "meta_ephemeris_type": 0,
        "meta_classification_type": "U",
        "meta_norad_cat_id": 34344,
        "meta_element_set_no": 999,
        "meta_rev_at_epoch": 86041,
        "meta_bstar": 0.0025772,
        "meta_mean_motion_dot": 5.736e-05,
        "meta_mean_motion_ddot": 0,
        "tle_line1": "1 34344U 93036PS  25342.82979557  .00005736  00000+0  25772-2 0  9992",
        "tle_line2": "2 34344  73.9779 117.3272 0155569 302.2966 181.7308 14.16365977860410"
      },
      "geometry": {
        "type": "Point",
        "coordinates": [
          -49.032572762329714,
          -40.692619858784276
        ]
      }
    },
    {
      "type": "Feature",
      "properties": {
        "norad_id": 34346,
        "name": "COSMOS 2251 DEB",
        "group": "cosmos-2251-debris",
        "lat": -10.773409135867773,
        "lon": 141.51486963746066,
        "alt_km": 806.3192710038629,
        "timestamp": "2025-12-09T04:51:47.885538+00:00",
        "meta_object_name": "COSMOS 2251 DEB",
        "meta_object_id": "1993-036PU",
        "meta_epoch": "2025-12-08T09:41:36.178080",
        "meta_mean_motion": 13.9967313,
        "meta_eccentricity": 0.02064041,
        "meta_inclination": 73.9955,
        "meta_ra_of_asc_node": 319.7696,
        "meta_arg_of_pericenter": 139.731,
        "meta_mean_anomaly": 346.312,
        "meta_ephemeris_type": 0,
        "meta_classification_type": "U",
        "meta_norad_cat_id": 34346,
        "meta_element_set_no": 999,
        "meta_rev_at_epoch": 85349,
        "meta_bstar": 0.0012989942,
        "meta_mean_motion_dot": 2.26e-05,
        "meta_mean_motion_ddot": 0,
        "tle_line1": "1 34346U 93036PU  25342.40389095  .00002260  00000+0  12990-2 0  9997",
        "tle_line2": "2 34346  73.9955 319.7696 0206404 139.7310 346.3120 13.99673130853491"
      },
      "geometry": {
        "type": "Point",
        "coordinates": [
          141.51486963746066,
          -10.773409135867773
        ]
      }
    },
    {
      "type": "Feature",
      "properties": {
        "norad_id": 34383,
        "name": "COSMOS 2251 DEB",
        "group": "cosmos-2251-debris",
        "lat": 70.92039309869854,
        "lon": 0.9234681671828233,
        "alt_km": 532.3978478937506,
        "timestamp": "2025-12-09T04:51:47.885548+00:00",
        "meta_object_name": "COSMOS 2251 DEB",
        "meta_object_id": "1993-036PY",
        "meta_epoch": "2025-12-08T08:29:05.201088",
        "meta_mean_motion": 15.08374336,
        "meta_eccentricity": 0.00025663,
        "meta_inclination": 74.023,
        "meta_ra_of_asc_node": 306.7437,
        "meta_arg_of_pericenter": 36.1896,
        "meta_mean_anomaly": 114.3166,
        "meta_ephemeris_type": 0,
        "meta_classification_type": "U",
        "meta_norad_cat_id": 34383,
        "meta_element_set_no": 999,
        "meta_rev_at_epoch": 89047,
        "meta_bstar": 0.0037660146,
        "meta_mean_motion_dot": 0.00059004,
        "meta_mean_motion_ddot": 0,
        "tle_line1": "1 34383U 93036PY  25342.35353242  .00059004  00000+0  37660-2 0  9996",
        "tle_line2": "2 34383  74.0230 306.7437 0002566  36.1896 114.3166 15.08374336890471"
      },
      "geometry": {
        "type": "Point",
        "coordinates": [
          0.9234681671828233,
          70.92039309869854
        ]
      }
    },
    {
      "type": "Feature",
      "properties": {
        "norad_id": 34387,
        "name": "COSMOS 2251 DEB",
        "group": "cosmos-2251-debris",
        "lat": 54.6581335967462,
        "lon": 14.668561439786972,
        "alt_km": 767.1445778932612,
        "timestamp": "2025-12-09T04:51:47.885617+00:00",
        "meta_object_name": "COSMOS 2251 DEB",
        "meta_object_id": "1993-036QC",
        "meta_epoch": "2025-12-08T16:55:10.212384",
        "meta_mean_motion": 14.43808648,
        "meta_eccentricity": 0.0038704,
        "meta_inclination": 74.0398,
        "meta_ra_of_asc_node": 219.3942,
        "meta_arg_of_pericenter": 317.0202,
        "meta_mean_anomaly": 99.1336,
        "meta_ephemeris_type": 0,
        "meta_classification_type": "U",
        "meta_norad_cat_id": 34387,
        "meta_element_set_no": 999,
        "meta_rev_at_epoch": 88123,
        "meta_bstar": 0.00055441,
        "meta_mean_motion_dot": 1.878e-05,
        "meta_mean_motion_ddot": 0,
        "tle_line1": "1 34387U 93036QC  25342.70497931  .00001878  00000+0  55441-3 0  9997",
        "tle_line2": "2 34387  74.0398 219.3942 0038704 317.0202  99.1336 14.43808648881234"
      },
      "geometry": {
        "type": "Point",
        "coordinates": [
          14.668561439786972,
          54.6581335967462
        ]
      }
    },
    {
      "type": "Feature",
      "properties": {
        "norad_id": 34388,
        "name": "COSMOS 2251 DEB",
        "group": "cosmos-2251-debris",
        "lat": 32.484427155321654,
        "lon": -119.76225754843118,
        "alt_km": 729.9445606410354,
        "timestamp": "2025-12-09T04:51:47.885629+00:00",
        "meta_object_name": "COSMOS 2251 DEB",
        "meta_object_id": "1993-036QD",
        "meta_epoch": "2025-12-08T19:03:51.606720",
        "meta_mean_motion": 14.49335038,
        "meta_eccentricity": 0.0014203,
        "meta_inclination": 74.039,
        "meta_ra_of_asc_node": 230.5042,
        "meta_arg_of_pericenter": 278.8896,
        "meta_mean_anomaly": 145.5832,
        "meta_ephemeris_type": 0,
        "meta_classification_type": "U",
        "meta_norad_cat_id": 34388,
        "meta_element_set_no": 999,
        "meta_rev_at_epoch": 88098,
        "meta_bstar": 0.0011806,
        "meta_mean_motion_dot": 4.49e-05,
        "meta_mean_motion_ddot": 0,
        "tle_line1": "1 34388U 93036QD  25342.79434730  .00004490  00000+0  11806-2 0  9994",
        "tle_line2": "2 34388  74.0390 230.5042 0014203 278.8896 145.5832 14.49335038880986"
      },
      "geometry": {
        "type": "Point",
        "coordinates": [
          -119.76225754843118,
          32.484427155321654
        ]
      }
    }
  ]
}